CCSDS_OMM_VERS = 2.0
CREATION_DATE  = 
ORIGINATOR     = 

OBJECT_NAME    = SL-16 R/B
OBJECT_ID      = 1993-016B
CENTER_NAME    = EARTH
REF_FRAME      = TEME
TIME_SYSTEM    = UTC
MEAN_ELEMENT_THEORY = SGP/SGP4

EPOCH          = 2026-01-08T06:43:14.896992
MEAN_MOTION    = 14.15295915
ECCENTRICITY   = .00083052
INCLINATION    = 71.0089
RA_OF_ASC_NODE = 342.0601
ARG_OF_PERICENTER = 44.8008
MEAN_ANOMALY   = 315.3784

EPHEMERIS_TYPE = 0
CLASSIFICATION_TYPE = U
NORAD_CAT_ID   = 22566
ELEMENT_SET_NO = 999
REV_AT_EPOCH   = 69362
BSTAR          = -.6762726E-4
MEAN_MOTION_DOT = -.179E-5
MEAN_MOTION_DDOT = 0

CCSDS_OMM_VERS = 2.0
CREATION_DATE  = 
ORIGINATOR     = 

OBJECT_NAME    = COSMOS 2242
OBJECT_ID      = 1993-024A
CENTER_NAME    = EARTH
REF_FRAME      = TEME
TIME_SYSTEM    = UTC
MEAN_ELEMENT_THEORY = SGP/SGP4

EPOCH          = 2026-01-08T07:41:37.505472
MEAN_MOTION    = 14.96247563
ECCENTRICITY   = .00172935
INCLINATION    = 82.5208
RA_OF_ASC_NODE = 324.4370
ARG_OF_PERICENTER = 143.0496
MEAN_ANOMALY   = 217.1921

EPHEMERIS_TYPE = 0
CLASSIFICATION_TYPE = U
NORAD_CAT_ID   = 22626
ELEMENT_SET_NO = 999
REV_AT_EPOCH   = 77136
BSTAR          = .20071154E-3
MEAN_MOTION_DOT = .2297E-4
MEAN_MOTION_DDOT = 0

CCSDS_OMM_VERS = 2.0
CREATION_DATE  = 
ORIGINATOR     = 

OBJECT_NAME    = SL-16 R/B
OBJECT_ID      = 1993-059B
CENTER_NAME    = EARTH
REF_FRAME      = TEME
TIME_SYSTEM    = UTC
MEAN_ELEMENT_THEORY = SGP/SGP4

EPOCH          = 2026-01-08T01:25:11.970048
MEAN_MOTION    = 14.17218685
ECCENTRICITY   = .00192317
INCLINATION    = 70.9902
RA_OF_ASC_NODE = 138.9862
ARG_OF_PERICENTER = 298.7686
MEAN_ANOMALY   = 61.1506

EPHEMERIS_TYPE = 0
CLASSIFICATION_TYPE = U
NORAD_CAT_ID   = 22803
ELEMENT_SET_NO = 999
REV_AT_EPOCH   = 67094
BSTAR          = -.12158447E-4
MEAN_MOTION_DOT = -.73E-6
MEAN_MOTION_DDOT = 0

CCSDS_OMM_VERS = 2.0
CREATION_DATE  = 
ORIGINATOR     = 

OBJECT_NAME    = ARIANE 40 R/B
OBJECT_ID      = 1993-061H
CENTER_NAME    = EARTH
REF_FRAME      = TEME
TIME_SYSTEM    = UTC
MEAN_ELEMENT_THEORY = SGP/SGP4

EPOCH          = 2026-01-08T03:42:54.986976
MEAN_MOTION    = 14.32821939
ECCENTRICITY   = .00118054
INCLINATION    = 98.5034
RA_OF_ASC_NODE = 78.1994
ARG_OF_PERICENTER = 103.0382
MEAN_ANOMALY   = 257.2121

EPHEMERIS_TYPE = 0
CLASSIFICATION_TYPE = U
NORAD_CAT_ID   = 22830
ELEMENT_SET_NO = 999
REV_AT_EPOCH   = 68543
BSTAR          = .11165505E-3
MEAN_MOTION_DOT = .262E-5
MEAN_MOTION_DDOT = 0

CCSDS_OMM_VERS = 2.0
CREATION_DATE  = 
ORIGINATOR     = 

OBJECT_NAME    = COSMOS 2278
OBJECT_ID      = 1994-023A
CENTER_NAME    = EARTH
REF_FRAME      = TEME
TIME_SYSTEM    = UTC
MEAN_ELEMENT_THEORY = SGP/SGP4

EPOCH          = 2026-01-08T06:28:45.313824
MEAN_MOTION    = 14.14359641
ECCENTRICITY   = .00071172
INCLINATION    = 71.0550
RA_OF_ASC_NODE = 301.5047
ARG_OF_PERICENTER = 130.7511
MEAN_ANOMALY   = 229.4230

EPHEMERIS_TYPE = 0
CLASSIFICATION_TYPE = U
NORAD_CAT_ID   = 23087
ELEMENT_SET_NO = 999
REV_AT_EPOCH   = 63626
BSTAR          = .24734282E-3
MEAN_MOTION_DOT = .426E-5
MEAN_MOTION_DDOT = 0

CCSDS_OMM_VERS = 2.0
CREATION_DATE  = 
ORIGINATOR     = 

OBJECT_NAME    = SL-16 R/B
OBJECT_ID      = 1994-023B
CENTER_NAME    = EARTH
REF_FRAME      = TEME
TIME_SYSTEM    = UTC
MEAN_ELEMENT_THEORY = SGP/SGP4

EPOCH          = 2026-01-08T06:33:22.582656
MEAN_MOTION    = 14.15001731
ECCENTRICITY   = .00028172
INCLINATION    = 70.9983
RA_OF_ASC_NODE = 197.7652
ARG_OF_PERICENTER = 349.7480
MEAN_ANOMALY   = 10.3584

EPHEMERIS_TYPE = 0
CLASSIFICATION_TYPE = U
NORAD_CAT_ID   = 23088
ELEMENT_SET_NO = 999
REV_AT_EPOCH   = 63754
BSTAR          = .19146918E-3
MEAN_MOTION_DOT = .323E-5
MEAN_MOTION_DDOT = 0

CCSDS_OMM_VERS = 2.0
CREATION_DATE  = 
ORIGINATOR     = 

OBJECT_NAME    = SL-16 R/B
OBJECT_ID      = 1994-074B
CENTER_NAME    = EARTH
REF_FRAME      = TEME
TIME_SYSTEM    = UTC
MEAN_ELEMENT_THEORY = SGP/SGP4

EPOCH          = 2026-01-08T02:54:32.650272
MEAN_MOTION    = 14.79325955
ECCENTRICITY   = .00078779
INCLINATION    = 97.7176
RA_OF_ASC_NODE = 41.3738
ARG_OF_PERICENTER = 64.3760
MEAN_ANOMALY   = 350.8189

EPHEMERIS_TYPE = 0
CLASSIFICATION_TYPE = U
NORAD_CAT_ID   = 23343
ELEMENT_SET_NO = 999
REV_AT_EPOCH   = 67829
BSTAR          = .70602921E-4
MEAN_MOTION_DOT = .476E-5
MEAN_MOTION_DDOT = 0

CCSDS_OMM_VERS = 2.0
CREATION_DATE  = 
ORIGINATOR     = 

OBJECT_NAME    = SL-16 R/B
OBJECT_ID      = 1994-077B
CENTER_NAME    = EARTH
REF_FRAME      = TEME
TIME_SYSTEM    = UTC
MEAN_ELEMENT_THEORY = SGP/SGP4

EPOCH          = 2026-01-08T06:40:50.302272
MEAN_MOTION    = 14.15551128
ECCENTRICITY   = .00048727
INCLINATION    = 70.9827
RA_OF_ASC_NODE = 119.5845
ARG_OF_PERICENTER = 262.5122
MEAN_ANOMALY   = 97.5447

EPHEMERIS_TYPE = 0
CLASSIFICATION_TYPE = U
NORAD_CAT_ID   = 23405
ELEMENT_SET_NO = 999
REV_AT_EPOCH   = 60768
BSTAR          = .11635615E-3
MEAN_MOTION_DOT = .18E-5
MEAN_MOTION_DDOT = 0

CCSDS_OMM_VERS = 2.0
CREATION_DATE  = 
ORIGINATOR     = 

OBJECT_NAME    = ARIANE 40+ R/B
OBJECT_ID      = 1995-021B
CENTER_NAME    = EARTH
REF_FRAME      = TEME
TIME_SYSTEM    = UTC
MEAN_ELEMENT_THEORY = SGP/SGP4

EPOCH          = 2026-01-08T04:58:40.645632
MEAN_MOTION    = 14.39719778
ECCENTRICITY   = .0006075
INCLINATION    = 98.4613
RA_OF_ASC_NODE = 80.4728
ARG_OF_PERICENTER = 330.9722
MEAN_ANOMALY   = 47.7169

EPHEMERIS_TYPE = 0
CLASSIFICATION_TYPE = U
NORAD_CAT_ID   = 23561
ELEMENT_SET_NO = 999
REV_AT_EPOCH   = 61054
BSTAR          = .11299903E-3
MEAN_MOTION_DOT = .31E-5
MEAN_MOTION_DDOT = 0

CCSDS_OMM_VERS = 2.0
CREATION_DATE  = 
ORIGINATOR     = 

OBJECT_NAME    = SL-16 R/B
OBJECT_ID      = 1995-058B
CENTER_NAME    = EARTH
REF_FRAME      = TEME
TIME_SYSTEM    = UTC
MEAN_ELEMENT_THEORY = SGP/SGP4

EPOCH          = 2026-01-08T06:46:36.812064
MEAN_MOTION    = 14.15487805
ECCENTRICITY   = .00139682
INCLINATION    = 71.0229
RA_OF_ASC_NODE = 307.0780
ARG_OF_PERICENTER = 219.5985
MEAN_ANOMALY   = 140.4119

EPHEMERIS_TYPE = 0
CLASSIFICATION_TYPE = U
NORAD_CAT_ID   = 23705
ELEMENT_SET_NO = 999
REV_AT_EPOCH   = 55930
BSTAR          = .17892613E-3
MEAN_MOTION_DOT = .302E-5
MEAN_MOTION_DDOT = 0

CCSDS_OMM_VERS = 2.0
CREATION_DATE  = 
ORIGINATOR     = 

OBJECT_NAME    = SL-16 R/B
OBJECT_ID      = 1996-051B
CENTER_NAME    = EARTH
REF_FRAME      = TEME
TIME_SYSTEM    = UTC
MEAN_ELEMENT_THEORY = SGP/SGP4

EPOCH          = 2026-01-08T06:13:29.675136
MEAN_MOTION    = 14.12400064
ECCENTRICITY   = .00192545
INCLINATION    = 70.7599
RA_OF_ASC_NODE = 303.1496
ARG_OF_PERICENTER = 228.7907
MEAN_ANOMALY   = 131.1554

EPHEMERIS_TYPE = 0
CLASSIFICATION_TYPE = U
NORAD_CAT_ID   = 24298
ELEMENT_SET_NO = 999
REV_AT_EPOCH   = 51311
BSTAR          = .48834048E-4
MEAN_MOTION_DOT = .41E-6
MEAN_MOTION_DDOT = 0

CCSDS_OMM_VERS = 2.0
CREATION_DATE  = 
ORIGINATOR     = 

OBJECT_NAME    = ORBVIEW 2 (SEASTAR)
OBJECT_ID      = 1997-037A
CENTER_NAME    = EARTH
REF_FRAME      = TEME
TIME_SYSTEM    = UTC
MEAN_ELEMENT_THEORY = SGP/SGP4

EPOCH          = 2026-01-08T06:20:01.850784
MEAN_MOTION    = 14.35441212
ECCENTRICITY   = .00015092
INCLINATION    = 98.8474
RA_OF_ASC_NODE = 171.0094
ARG_OF_PERICENTER = 217.4848
MEAN_ANOMALY   = 142.6231

EPHEMERIS_TYPE = 0
CLASSIFICATION_TYPE = U
NORAD_CAT_ID   = 24883
ELEMENT_SET_NO = 999
REV_AT_EPOCH   = 49980
BSTAR          = .1449557E-3
MEAN_MOTION_DOT = .37E-5
MEAN_MOTION_DDOT = 0

