SL-16 R/B               
1 22566U 93016B   26008.28003353 -.00000179  00000+0 -67627-4 0  9990
2 22566  71.0089 342.0601 0008305  44.8008 315.3784 14.15295915693623
COSMOS 2242             
1 22626U 93024A   26008.32057298  .00002297  00000+0  20071-3 0  9990
2 22626  82.5208 324.4370 0017293 143.0496 217.1921 14.96247563771361
SL-16 R/B               
1 22803U 93059B   26008.05916632 -.00000073  00000+0 -12158-4 0  9991
2 22803  70.9902 138.9862 0019231 298.7686  61.1506 14.17218685670941
ARIANE 40 R/B           
1 22830U 93061H   26008.15480309  .00000262  00000+0  11166-3 0  9997
2 22830  98.5034  78.1994 0011805 103.0382 257.2121 14.32821939685434
COSMOS 2278             
1 23087U 94023A   26008.26996891  .00000426  00000+0  24734-3 0  9998
2 23087  71.0550 301.5047 0007117 130.7511 229.4230 14.14359641636267
SL-16 R/B               
1 23088U 94023B   26008.27317804  .00000323  00000+0  19147-3 0  9999
2 23088  70.9983 197.7652 0002817 349.7480  10.3584 14.15001731637548
SL-16 R/B               
1 23343U 94074B   26008.12121123  .00000476  00000+0  70603-4 0  9994
2 23343  97.7176  41.3738 0007877  64.3760 350.8189 14.79325955678291
SL-16 R/B               
1 23405U 94077B   26008.27835998  .00000180  00000+0  11636-3 0  9996
2 23405  70.9827 119.5845 0004872 262.5122  97.5447 14.15551128607689
ARIANE 40+ R/B          
1 23561U 95021B   26008.20741488  .00000310  00000+0  11300-3 0  9995
2 23561  98.4613  80.4728 0006075 330.9722  47.7169 14.39719778610549
SL-16 R/B               
1 23705U 95058B   26008.28237051  .00000302  00000+0  17893-3 0  9993
2 23705  71.0229 307.0780 0013968 219.5985 140.4119 14.15487805559306
SL-16 R/B               
1 24298U 96051B   26008.25937124  .00000041  00000+0  48834-4 0  9990
2 24298  70.7599 303.1496 0019254 228.7907 131.1554 14.12400064513119
ORBVIEW 2 (SEASTAR)     
1 24883U 97037A   26008.26391031  .00000370  00000+0  14496-3 0  9998
2 24883  98.8474 171.0094 0001509 217.4848 142.6231 14.35441212499804
